[{"OBJECT_NAME":"STARLINK-36170","OBJECT_ID":"2025-298J","EPOCH":"2026-03-09T22:52:08.345568","MEAN_MOTION":14.9914019,"ECCENTRICITY":0.00020247,"INCLINATION":70.0025,"RA_OF_ASC_NODE":13.9165,"ARG_OF_PERICENTER":262.148,"MEAN_ANOMALY":97.9449,"EPHEMERIS_TYPE":0,"CLASSIFICATION_TYPE":"U","NORAD_CAT_ID":67083,"ELEMENT_SET_NO":999,"REV_AT_EPOCH":1325,"BSTAR":0.00012309933,"MEAN_MOTION_DOT":1.407e-5,"MEAN_MOTION_DDOT":0},{"OBJECT_NAME":"TIROS 6","OBJECT_ID":"1962-047A","EPOCH":"2026-03-09T22:32:46.825440","MEAN_MOTION":14.95739722,"ECCENTRICITY":0.00128175,"INCLINATION":58.3026,"RA_OF_ASC_NODE":287.9356,"ARG_OF_PERICENTER":61.4296,"MEAN_ANOMALY":298.8041,"EPHEMERIS_TYPE":0,"CLASSIFICATION_TYPE":"U","NORAD_CAT_ID":397,"ELEMENT_SET_NO":999,"REV_AT_EPOCH":39747,"BSTAR":0.00017529326,"MEAN_MOTION_DOT":1.739e-5,"MEAN_MOTION_DDOT":0}]
